OBJECT_NAME,OBJECT_ID,OBJECT_TYPE,EPOCH,MEAN_MOTION,ECCENTRICITY,INCLINATION,RA_OF_ASC_NODE,ARG_OF_PERICENTER,MEAN_ANOMALY,EPHEMERIS_TYPE,CLASSIFICATION_TYPE,NORAD_CAT_ID,ELEMENT_SET_NO,REV_AT_EPOCH,BSTAR,MEAN_MOTION_DOT,MEAN_MOTION_DDOT,WEATHER,BRIGHTEST,EARTH_RESOURCES,NAVIGATION,SCIENTIFIC,MISCELLANEOUS,COMMUNICATION,active geosynchronous,constellations,active_geosynchronous
STARLINK-1654,2020-062B,Sattelite,2026-02-22T05:19:11.230464,15.65280921,0.00047274,53.045,49.7882,297.0452,63.008,0,U,46326,999,30249,0.00093910425,0.00095618,0.0,False,False,False,False,False,False,False,False,starlink,
STARLINK-1686,2020-062D,Sattelite,2026-02-22T15:34:37.902720,15.66627109,0.00043892,53.0456,28.6505,245.0671,114.9888,0,U,46328,999,30282,0.0011007048,0.0011874,0.0,False,False,False,False,False,False,False,False,starlink,
STARLINK-1695,2020-062E,Sattelite,2026-02-22T06:38:31.731360,15.50692012,0.00056938,53.0515,50.8127,53.1989,306.9541,0,U,46329,999,30247,0.0017651784,0.00104077,0.0,False,False,False,False,False,False,False,False,starlink,
STARLINK-1710,2020-062F,Sattelite,2026-02-23T00:34:09.096096,16.02902629,0.000499,53.0312,352.8321,104.2901,255.8684,0,U,46330,999,30336,0.0015086,0.00932121,0.00044848,False,False,False,False,False,False,False,False,starlink,
STARLINK-1719,2020-062G,Sattelite,2026-02-22T06:16:58.563552,15.54189122,0.00048856,53.0451,53.5219,262.6607,97.3848,0,U,46331,999,30244,0.0027235645,0.00184289,0.0,False,False,False,False,False,False,False,False,starlink,
STARLINK-1723,2020-062J,Sattelite,2026-02-22T22:00:01.999584,15.97325213,0.00038842,53.0392,38.6829,140.7471,128.9432,0,U,46333,999,604,0.0018083132,0.00812191,0.0003060226,False,False,False,False,False,False,False,False,starlink,
STARLINK-1727,2020-062L,Sattelite,2026-02-22T22:00:01.999584,15.64686968,0.00052331,53.0447,48.8851,294.4498,172.9188,0,U,46335,999,598,0.0016432262,0.0016522,0.0,False,False,False,False,False,False,False,False,starlink,
STARLINK-1738,2020-062M,Sattelite,2026-02-22T22:00:01.999584,15.90928988,0.00088938,53.0328,356.4375,74.7488,240.5243,0,U,46336,999,587,0.0011948933,0.00382245,6.6049388e-05,False,False,False,False,False,False,False,False,starlink,
STARLINK-1750,2020-062N,Sattelite,2026-02-22T22:11:23.135712,16.0212409,0.00055393,53.0336,6.7475,114.8852,245.2754,0,U,46337,999,30315,0.0016870222,0.00995059,0.000511332,False,False,False,False,False,False,False,False,starlink,
STARLINK-1752,2020-062P,Sattelite,2026-02-22T22:00:01.999584,15.82478025,0.00012216,53.0413,41.8992,329.1223,61.7654,0,U,46338,999,585,0.0012041791,0.00263311,0.0,False,False,False,False,False,False,False,False,starlink,
STARLINK-1759,2020-062R,Sattelite,2026-02-22T16:04:14.515680,15.55757255,0.00051757,53.0252,43.623,7.0904,353.0178,0,U,46340,999,30260,0.0012160109,0.00085823,0.0,False,False,False,False,False,False,False,False,starlink,
STARLINK-1762,2020-062T,Sattelite,2026-02-22T18:43:34.113216,15.30206692,0.0001486,53.1603,80.2348,91.5792,268.5379,0,U,46342,999,30211,9.273292e-05,2.389e-05,0.0,False,False,False,False,False,False,False,False,starlink,
STARLINK-1764,2020-062U,Sattelite,2026-02-22T22:00:01.999584,15.62866673,0.00015278,53.0459,29.5747,310.8568,128.5029,0,U,46343,999,597,0.0028992631,0.00275344,0.0,False,False,False,False,False,False,False,False,starlink,
STARLINK-1765,2020-062V,Sattelite,2026-02-22T22:00:01.999584,15.80270986,0.00046502,53.0431,16.1691,93.3251,128.564,0,U,46344,999,602,0.0010197207,0.00199794,0.0,False,False,False,False,False,False,False,False,starlink,
STARLINK-1547,2020-062Y,Sattelite,2026-02-22T00:44:24.488736,15.59553299,0.00070662,53.04,355.3101,84.3691,275.8127,0,U,46347,999,30322,0.0012917764,0.00105508,0.0,False,False,False,False,False,False,False,False,starlink,
STARLINK-1553,2020-062Z,Sattelite,2026-02-22T14:26:43.804896,15.35884103,0.0005412,53.04,17.8292,99.0506,261.1109,0,U,46348,999,30297,0.00070762,0.00024778,0.0,False,False,False,False,False,False,False,False,starlink,
STARLINK-1575,2020-062AA,Sattelite,2026-02-22T22:00:01.999584,15.7694026,0.00118087,53.0317,336.8442,108.487,156.6218,0,U,46349,999,595,0.00083593317,0.00140328,0.0,False,False,False,False,False,False,False,False,starlink,
STARLINK-1646,2020-062AC,Sattelite,2026-02-22T16:36:00.172224,15.51891413,0.00056773,53.0487,47.6048,59.1411,301.0156,0,U,46351,999,30257,0.0019144243,0.00118078,0.0,False,False,False,False,False,False,False,False,starlink,
STARLINK-1653,2020-062AD,Sattelite,2026-02-22T22:57:02.309472,15.55273895,0.00047801,53.0474,33.9008,220.8365,139.2287,0,U,46352,999,30278,0.001428952,0.00099309,0.0,False,False,False,False,False,False,False,False,starlink,
STARLINK-1656,2020-062AE,Sattelite,2026-02-22T20:08:58.888608,15.49258416,0.00014607,53.051,70.8507,71.1365,288.9801,0,U,46353,999,30224,0.00077397559,0.0004276,0.0,False,False,False,False,False,False,False,False,starlink,
STARLINK-1657,2020-062AF,Sattelite,2026-02-22T22:00:01.999584,15.76646754,0.00024149,53.0475,43.2371,249.4995,351.6334,0,U,46354,999,582,0.0012994923,0.00216783,0.0,False,False,False,False,False,False,False,False,starlink,
STARLINK-1661,2020-062AG,Sattelite,2026-02-22T18:32:58.015680,15.30194967,0.00015456,53.1591,80.2678,77.7496,282.3678,0,U,46355,999,30211,2.1960023e-05,2.91e-06,0.0,False,False,False,False,False,False,False,False,starlink,
STARLINK-1665,2020-062AH,Sattelite,2026-02-22T06:41:24.343008,15.59282346,0.00031943,53.0464,52.0742,287.1203,72.9459,0,U,46356,999,30246,0.0020302152,0.00165512,0.0,False,False,False,False,False,False,False,False,starlink,
STARLINK-1666,2020-062AJ,Sattelite,2026-02-22T23:24:08.096544,15.54230599,0.00060567,53.0497,45.6128,58.3467,301.8133,0,U,46357,999,30261,0.0015977362,0.00107049,0.0,False,False,False,False,False,False,False,False,starlink,
STARLINK-1707,2020-062AL,Sattelite,2026-02-22T22:00:01.999584,15.60793041,0.00072441,53.0271,346.7441,82.37,200.8256,0,U,46359,999,597,0.00097499634,0.00083161,0.0,False,False,False,False,False,False,False,False,starlink,
STARLINK-1726,2020-062AP,Sattelite,2026-02-22T22:00:01.999584,15.84267481,0.00099122,53.0413,335.3557,106.5537,31.7616,0,U,46362,999,601,0.0012233724,0.00292954,0.0,False,False,False,False,False,False,False,False,starlink,
STARLINK-1651,2020-062AT,Sattelite,2026-02-23T00:57:05.855040,16.0367531,0.0006198,53.0348,341.3611,136.7389,223.4129,0,U,46366,999,30351,0.0015861,0.01025765,0.00056178,False,False,False,False,False,False,False,False,starlink,
STARLINK-1724,2020-062BC,Sattelite,2026-02-22T20:52:08.893632,15.49623312,0.00019566,53.0312,358.5098,24.3318,335.7782,0,U,46375,999,30326,0.00164467,0.00093159,0.0,False,False,False,False,False,False,False,False,starlink,
STARLINK-1742,2020-062BD,Sattelite,2026-02-22T22:00:01.999584,15.76328381,0.00133056,53.0309,329.842,94.964,41.2534,0,U,46376,999,601,0.00069611384,0.00113394,0.0,False,False,False,False,False,False,False,False,starlink,
STARLINK-1770,2020-062BL,Sattelite,2026-02-22T23:04:27.140736,15.61164622,0.00010439,53.0436,27.7637,240.0613,120.0296,0,U,46383,999,30286,0.0011801482,0.00102363,0.0,False,False,False,False,False,False,False,False,starlink,
STARLINK-1771,2020-062BM,Sattelite,2026-02-22T23:23:50.191872,15.44288316,0.00022376,53.0427,56.0874,233.764,126.3159,0,U,46384,999,30246,0.0013876516,0.00065012,0.0,False,False,False,False,False,False,False,False,starlink,
GAOFEN-11 02,2020-064A,Sattelite,2026-02-22T21:54:38.251872,15.23439214,0.00165614,97.4964,179.9115,350.4242,9.6677,0,U,46396,999,30413,0.00035634914,8.45e-05,0.0,False,False,False,False,False,False,False,False,False,
JILIN-1 GAOFEN 3B,2020-065A,Sattelite,2026-02-22T20:40:32.250432,15.74891589,0.0003712,97.2404,110.7345,167.6054,192.5303,0,U,46454,999,30238,0.0009718768,0.00145476,0.0,False,False,False,False,False,False,False,False,satnogs,
JILIN-1 GAOFEN 3E,2020-065D,Sattelite,2026-02-22T22:41:13.910496,15.52413317,0.00137662,97.246,104.7825,217.8382,142.1905,0,U,46457,999,30197,0.00073256803,0.00044988,0.0,False,False,False,False,False,False,False,False,satnogs,
JILIN-1 GAOFEN 3F,2020-065E,Sattelite,2026-02-22T22:51:51.490656,15.50951997,0.00154597,97.2418,102.5408,205.9476,154.1003,0,U,46458,999,30194,0.00069914366,0.00040768,0.0,False,False,False,False,False,False,False,False,satnogs,
JILIN-1 GAOFEN 3G,2020-065F,Sattelite,2026-02-22T22:27:42.365664,15.56186606,0.00146937,97.2498,107.95,116.1666,244.1103,0,U,46459,999,30209,0.00076977559,0.00054336,0.0,False,False,False,False,False,False,False,False,satnogs,
JILIN-1 GAOFEN 3H,2020-065G,Sattelite,2026-02-22T22:32:06.348768,15.54832687,0.00090261,97.2439,104.7531,58.283,301.9303,0,U,46460,999,30206,0.00075893982,0.00050799,0.0,False,False,False,False,False,False,False,False,satnogs,
JILIN-1 GAOFEN 3I,2020-065H,Sattelite,2026-02-22T22:01:47.126784,15.66904876,0.00121732,97.2459,110.3379,140.3644,219.8509,0,U,46461,999,30228,0.00088429715,0.00094675,0.0,False,False,False,False,False,False,False,False,False,
JILIN-1 GAOFEN 3J,2020-065J,Sattelite,2026-02-22T22:16:26.165568,15.71432055,0.0004518,97.2436,110.2098,165.4498,194.6896,0,U,46462,999,30235,0.0009402526,0.00121185,0.0,False,False,False,False,False,False,False,False,satnogs,
HAIYANG-2C,2020-066A,Sattelite,2026-02-22T22:33:38.752704,13.83372833,0.00129082,65.9975,139.736,251.7264,108.24,0,U,46469,999,27369,0.00014134157,7.4e-07,0.0,False,False,False,False,False,False,False,False,satnogs,
HJ-2A,2020-067A,Sattelite,2026-02-22T21:50:54.089664,14.76527185,0.00018311,97.8899,134.9526,267.4284,92.6717,0,U,46478,999,29139,9.9087642e-05,6.41e-06,0.0,False,False,False,False,False,False,False,False,satnogs,
HJ-2B,2020-067B,Sattelite,2026-02-22T22:43:23.348928,14.76516795,0.00017644,97.896,135.9239,99.4469,260.694,0,U,46479,999,29140,0.00012854124,8.46e-06,0.0,False,False,False,False,False,False,False,False,satnogs,
GONETS-M 17,2020-068A,Sattelite,2026-02-22T23:34:49.402272,12.42869005,0.00213424,82.494,58.5435,285.9021,73.9707,0,U,46486,999,24497,0.00033953362,5.7e-07,0.0,False,False,False,False,False,False,False,False,satnogs,
